start=new Date('2023-06-24T00:00:00.000Z').valueOf();
sats=[{"CENTER_NAME":"EARTH","DECAY_DATE":null,"COUNTRY_CODE":"US","SITE":"AFETR","TIME_SYSTEM":"UTC","ECCENTRICITY":"0.00010860","OBJECT_NAME":"STARLINK-4304","SEMIMAJOR_AXIS":"6917.862","ELEMENT_SET_NO":"999","INCLINATION":"53.2140","MEAN_MOTION":"15.08845912","REV_AT_EPOCH":"4867","PERIOD":"95.437","MEAN_ANOMALY":"272.9352","BSTAR":"0.00015123000000","OBJECT_TYPE":"PAYLOAD","ARG_OF_PERICENTER":"87.1764","RA_OF_ASC_NODE":"239.3832","NORAD_CAT_ID":"53414","MEAN_MOTION_DOT":"0.00002120","CLASSIFICATION_TYPE":"U","TLE_LINE1":"1 53414U 22097AC  23174.47206999  .00002120  00000-0  15123-3 0  9990","EPHEMERIS_TYPE":"0","MEAN_ELEMENT_THEORY":"SGP4","RCS_SIZE":"LARGE","EPOCH":"2023-06-23T11:19:46.847136","REF_FRAME":"TEME","GP_ID":"234505269","LAUNCH_DATE":"2022-08-10","PERIAPSIS":"538.976","FILE":"3940792","APOAPSIS":"540.479","TLE_LINE2":"2 53414  53.2140 239.3832 0001086  87.1764 272.9352 15.08845912 48670","MEAN_MOTION_DDOT":"0.0000000000000","OBJECT_ID":"2022-097AC"},{"RA_OF_ASC_NODE":"239.3945","ARG_OF_PERICENTER":"97.8696","MEAN_MOTION_DOT":"0.00001580","NORAD_CAT_ID":"53415","TLE_LINE1":"1 53415U 22097AD  23174.46838753  .00001580  00000-0  11729-3 0  9996","EPHEMERIS_TYPE":"0","MEAN_ELEMENT_THEORY":"SGP4","CLASSIFICATION_TYPE":"U","RCS_SIZE":"LARGE","EPOCH":"2023-06-23T11:14:28.682592","REF_FRAME":"TEME","GP_ID":"234504715","LAUNCH_DATE":"2022-08-10","PERIAPSIS":"539.130","TLE_LINE2":"2 53415  53.2163 239.3945 0000847  97.8696 262.2393 15.08849565 48672","APOAPSIS":"540.302","FILE":"3940779","OBJECT_ID":"2022-097AD","MEAN_MOTION_DDOT":"0.0000000000000","DECAY_DATE":null,"CENTER_NAME":"EARTH","COUNTRY_CODE":"US","SITE":"AFETR","TIME_SYSTEM":"UTC","OBJECT_NAME":"STARLINK-4479","ECCENTRICITY":"0.00008470","SEMIMAJOR_AXIS":"6917.851","INCLINATION":"53.2163","ELEMENT_SET_NO":"999","MEAN_MOTION":"15.08849565","REV_AT_EPOCH":"4867","MEAN_ANOMALY":"262.2393","PERIOD":"95.437","BSTAR":"0.00011729000000","OBJECT_TYPE":"PAYLOAD"},{"REV_AT_EPOCH":"4854","MEAN_ANOMALY":"284.1541","PERIOD":"95.437","SEMIMAJOR_AXIS":"6917.869","INCLINATION":"53.2138","ELEMENT_SET_NO":"999","MEAN_MOTION":"15.08843602","BSTAR":"0.00023936000000","OBJECT_TYPE":"PAYLOAD","CENTER_NAME":"EARTH","DECAY_DATE":null,"COUNTRY_CODE":"US","TIME_SYSTEM":"UTC","ECCENTRICITY":"0.00009500","OBJECT_NAME":"STARLINK-4480","SITE":"AFETR","GP_ID":"234465609","LAUNCH_DATE":"2022-08-10","PERIAPSIS":"539.077","REF_FRAME":"TEME","APOAPSIS":"540.392","FILE":"3940236","TLE_LINE2":"2 53416  53.2138 243.2781 0000950  75.9557 284.1541 15.08843602 48545","MEAN_MOTION_DDOT":"0.0000000000000","OBJECT_ID":"2022-097AE","NORAD_CAT_ID":"53416","MEAN_MOTION_DOT":"0.00003524","ARG_OF_PERICENTER":"75.9557","RA_OF_ASC_NODE":"243.2781","EPOCH":"2023-06-22T14:13:16.302720","CLASSIFICATION_TYPE":"U","TLE_LINE1":"1 53416U 22097AE  23173.59254980  .00003524  00000-0  23936-3 0  9997","MEAN_ELEMENT_THEORY":"SGP4","EPHEMERIS_TYPE":"0","RCS_SIZE":"LARGE"},{"PERIAPSIS":"539.150","LAUNCH_DATE":"2022-08-10","GP_ID":"234504865","REF_FRAME":"TEME","MEAN_MOTION_DDOT":"0.0000000000000","OBJECT_ID":"2022-097AF","APOAPSIS":"540.319","FILE":"3940779","TLE_LINE2":"2 53417  53.2147 239.4166 0000845  79.1170 280.9918 15.08843432 48677","MEAN_MOTION_DOT":"0.00002148","NORAD_CAT_ID":"53417","ARG_OF_PERICENTER":"79.1170","RA_OF_ASC_NODE":"239.4166","EPOCH":"2023-06-23T11:09:11.369088","RCS_SIZE":"LARGE","CLASSIFICATION_TYPE":"U","TLE_LINE1":"1 53417U 22097AF  23174.46471492  .00002148  00000-0  15300-3 0  9991","MEAN_ELEMENT_THEORY":"SGP4","EPHEMERIS_TYPE":"0","PERIOD":"95.437","MEAN_ANOMALY":"280.9918","REV_AT_EPOCH":"4867","ELEMENT_SET_NO":"999","SEMIMAJOR_AXIS":"6917.870","INCLINATION":"53.2147","MEAN_MOTION":"15.08843432","OBJECT_TYPE":"PAYLOAD","BSTAR":"0.00015300000000","COUNTRY_CODE":"US","CENTER_NAME":"EARTH","DECAY_DATE":null,"ECCENTRICITY":"0.00008450","OBJECT_NAME":"STARLINK-4484","TIME_SYSTEM":"UTC","SITE":"AFETR"},{"RCS_SIZE":"LARGE","TLE_LINE1":"1 53418U 22097AG  23173.43150126  .00000885  00000-0  73663-4 0  9999","EPHEMERIS_TYPE":"0","MEAN_ELEMENT_THEORY":"SGP4","CLASSIFICATION_TYPE":"U","EPOCH":"2023-06-22T10:21:21.708864","RA_OF_ASC_NODE":"233.6143","ARG_OF_PERICENTER":"87.5138","NORAD_CAT_ID":"53418","MEAN_MOTION_DOT":"0.00000885","OBJECT_ID":"2022-097AG","MEAN_MOTION_DDOT":"0.0000000000000","TLE_LINE2":"2 53418  53.2158 233.6143 0000806  87.5138 272.5946 15.08841142 48668","APOAPSIS":"540.299","FILE":"3939920","REF_FRAME":"TEME","LAUNCH_DATE":"2022-08-10","PERIAPSIS":"539.184","GP_ID":"234457859","SITE":"AFETR","OBJECT_NAME":"STARLINK-4481","ECCENTRICITY":"0.00008060","TIME_SYSTEM":"UTC","COUNTRY_CODE":"US","DECAY_DATE":null,"CENTER_NAME":"EARTH","OBJECT_TYPE":"PAYLOAD","BSTAR":"0.00007366300000","SEMIMAJOR_AXIS":"6917.877","INCLINATION":"53.2158","ELEMENT_SET_NO":"999","MEAN_MOTION":"15.08841142","MEAN_ANOMALY":"272.5946","PERIOD":"95.437","REV_AT_EPOCH":"4866"},{"COUNTRY_CODE":"US","CENTER_NAME":"EARTH","DECAY_DATE":null,"SITE":"AFETR","ECCENTRICITY":"0.00009730","OBJECT_NAME":"STARLINK-4476","TIME_SYSTEM":"UTC","MEAN_MOTION":"15.08835718","SEMIMAJOR_AXIS":"6917.893","ELEMENT_SET_NO":"999","INCLINATION":"53.2147","MEAN_ANOMALY":"274.3478","PERIOD":"95.438","REV_AT_EPOCH":"4867","OBJECT_TYPE":"PAYLOAD","BSTAR":"0.00005378500000","ARG_OF_PERICENTER":"85.7625","RA_OF_ASC_NODE":"239.4277","NORAD_CAT_ID":"53419","MEAN_MOTION_DOT":"0.00000568","RCS_SIZE":"LARGE","CLASSIFICATION_TYPE":"U","EPHEMERIS_TYPE":"0","TLE_LINE1":"1 53419U 22097AH  23174.46103964  .00000568  00000-0  53785-4 0  9993","MEAN_ELEMENT_THEORY":"SGP4","EPOCH":"2023-06-23T11:03:53.824896","REF_FRAME":"TEME","PERIAPSIS":"539.085","LAUNCH_DATE":"2022-08-10","GP_ID":"234505249","MEAN_MOTION_DDOT":"0.0000000000000","OBJECT_ID":"2022-097AH","FILE":"3940791","APOAPSIS":"540.432","TLE_LINE2":"2 53419  53.2147 239.4277 0000973  85.7625 274.3478 15.08835718 48678"},{"NORAD_CAT_ID":"53420","MEAN_MOTION_DOT":"-0.00000914","ARG_OF_PERICENTER":"110.8891","RA_OF_ASC_NODE":"239.4777","EPOCH":"2023-06-23T10:47:58.767072","CLASSIFICATION_TYPE":"U","TLE_LINE1":"1 53420U 22097AJ  23174.44998573 -.00000914  00000-0 -39358-4 0  9998","EPHEMERIS_TYPE":"0","MEAN_ELEMENT_THEORY":"SGP4","RCS_SIZE":"LARGE","GP_ID":"234505093","LAUNCH_DATE":"2022-08-10","PERIAPSIS":"539.170","REF_FRAME":"TEME","APOAPSIS":"540.203","FILE":"3940791","TLE_LINE2":"2 53420  53.2162 239.4777 0000747 110.8891 249.2182 15.08859218 48670","MEAN_MOTION_DDOT":"0.0000000000000","OBJECT_ID":"2022-097AJ","CENTER_NAME":"EARTH","DECAY_DATE":null,"COUNTRY_CODE":"US","TIME_SYSTEM":"UTC","ECCENTRICITY":"0.00007470","OBJECT_NAME":"STARLINK-4552","SITE":"AFETR","REV_AT_EPOCH":"4867","PERIOD":"95.436","MEAN_ANOMALY":"249.2182","ELEMENT_SET_NO":"999","SEMIMAJOR_AXIS":"6917.822","MEAN_MOTION":"15.08859218","INCLINATION":"53.2162","BSTAR":"-0.00003935800000","OBJECT_TYPE":"PAYLOAD"},{"COUNTRY_CODE":"US","CENTER_NAME":"EARTH","DECAY_DATE":null,"ECCENTRICITY":"0.00009840","OBJECT_NAME":"STARLINK-4545","TIME_SYSTEM":"UTC","SITE":"AFETR","MEAN_ANOMALY":"275.8978","PERIOD":"95.437","REV_AT_EPOCH":"4867","SEMIMAJOR_AXIS":"6917.858","MEAN_MOTION":"15.08847453","ELEMENT_SET_NO":"999","INCLINATION":"53.2149","OBJECT_TYPE":"PAYLOAD","BSTAR":"0.00019374000000","MEAN_MOTION_DOT":"0.00002798","NORAD_CAT_ID":"53421","ARG_OF_PERICENTER":"84.2126","RA_OF_ASC_NODE":"239.4434","EPOCH":"2023-06-23T10:58:35.294880","RCS_SIZE":"LARGE","CLASSIFICATION_TYPE":"U","TLE_LINE1":"1 53421U 22097AK  23174.45735295  .00002798  00000-0  19374-3 0  9995","EPHEMERIS_TYPE":"0","MEAN_ELEMENT_THEORY":"SGP4","LAUNCH_DATE":"2022-08-10","PERIAPSIS":"539.042","GP_ID":"234505255","REF_FRAME":"TEME","MEAN_MOTION_DDOT":"0.0000000000000","OBJECT_ID":"2022-097AK","FILE":"3940791","APOAPSIS":"540.403","TLE_LINE2":"2 53421  53.2149 239.4434 0000984  84.2126 275.8978 15.08847453 48670"},{"OBJECT_ID":"2022-097AL","MEAN_MOTION_DDOT":"0.0000000000000","TLE_LINE2":"2 53422  53.2146 239.5095 0000820  95.4202 264.6884 15.08844279 48675","APOAPSIS":"540.300","FILE":"3940791","REF_FRAME":"TEME","PERIAPSIS":"539.165","LAUNCH_DATE":"2022-08-10","GP_ID":"234505252","RCS_SIZE":"LARGE","EPHEMERIS_TYPE":"0","TLE_LINE1":"1 53422U 22097AL  23174.44263414  .00001182  00000-0  92329-4 0  9992","MEAN_ELEMENT_THEORY":"SGP4","CLASSIFICATION_TYPE":"U","EPOCH":"2023-06-23T10:37:23.589696","ARG_OF_PERICENTER":"95.4202","RA_OF_ASC_NODE":"239.5095","MEAN_MOTION_DOT":"0.00001182","NORAD_CAT_ID":"53422","OBJECT_TYPE":"PAYLOAD","BSTAR":"0.00009232900000","INCLINATION":"53.2146","SEMIMAJOR_AXIS":"6917.867","ELEMENT_SET_NO":"999","MEAN_MOTION":"15.08844279","MEAN_ANOMALY":"264.6884","PERIOD":"95.437","REV_AT_EPOCH":"4867","SITE":"AFETR","OBJECT_NAME":"STARLINK-4546","ECCENTRICITY":"0.00008200","TIME_SYSTEM":"UTC","COUNTRY_CODE":"US","DECAY_DATE":null,"CENTER_NAME":"EARTH"},{"RCS_SIZE":"LARGE","CLASSIFICATION_TYPE":"U","TLE_LINE1":"1 53423U 22097AM  23173.46103204  .00001678  00000-0  12345-3 0  9993","EPHEMERIS_TYPE":"0","MEAN_ELEMENT_THEORY":"SGP4","EPOCH":"2023-06-22T11:03:53.168256","RA_OF_ASC_NODE":"243.9268","ARG_OF_PERICENTER":"81.6933","NORAD_CAT_ID":"53423","MEAN_MOTION_DOT":"0.00001678","MEAN_MOTION_DDOT":"0.0000000000000","OBJECT_ID":"2022-097AM","APOAPSIS":"540.418","FILE":"3939920","TLE_LINE2":"2 53423  53.2160 243.9268 0000975  81.6933 278.4170 15.08840775 48524","REF_FRAME":"TEME","PERIAPSIS":"539.069","LAUNCH_DATE":"2022-08-10","GP_ID":"234458195","SITE":"AFETR","ECCENTRICITY":"0.00009750","OBJECT_NAME":"STARLINK-4539","TIME_SYSTEM":"UTC","COUNTRY_CODE":"US","CENTER_NAME":"EARTH","DECAY_DATE":null,"OBJECT_TYPE":"PAYLOAD","BSTAR":"0.00012345000000","SEMIMAJOR_AXIS":"6917.878","ELEMENT_SET_NO":"999","MEAN_MOTION":"15.08840775","INCLINATION":"53.2160","MEAN_ANOMALY":"278.4170","PERIOD":"95.438","REV_AT_EPOCH":"4852"}];
